{
    "links": {
        "self": "http://www.neowsapp.com/rest/v1/neo/3789371?api_key=iIulBulltgU6a56xZRHN4H3l9WmuAYTsLGpBGhQ2"
    },
    "id": "3789371",
    "neo_reference_id": "3789371",
    "name": "(2017 VD13)",
    "designation": "2017 VD13",
    "nasa_jpl_url": "http://ssd.jpl.nasa.gov/sbdb.cgi?sstr=3789371",
    "absolute_magnitude_h": 25.0,
    "estimated_diameter": {
        "kilometers": {
            "estimated_diameter_min": 0.02658,
            "estimated_diameter_max": 0.0594346868
        },
        "meters": {
            "estimated_diameter_min": 26.58,
            "estimated_diameter_max": 59.4346868419
        },
        "miles": {
            "estimated_diameter_min": 0.0165160412,
            "estimated_diameter_max": 0.0369309908
        },
        "feet": {
            "estimated_diameter_min": 87.2047272,
            "estimated_diameter_max": 194.9956979785
        }
    },
    "is_potentially_hazardous_asteroid": false,
    "close_approach_data": [
        {
            "close_approach_date": "2017-11-22",
            "close_approach_date_full": "2017-Nov-22 11:31",
            "epoch_date_close_approach": 1511350260000,
            "relative_velocity": {
                "kilometers_per_second": "16.3772891909",
                "kilometers_per_hour": "58958.2410873944",
                "miles_per_hour": "36634.3581912202"
            },
            "miss_distance": {
                "astronomical": "0.0337100461",
                "lunar": "13.1132079329",
                "kilometers": "5042951.094161807",
                "miles": "3133544.5055226566"
            },
            "orbiting_body": "Earth"
        },
        {
            "close_approach_date": "2018-04-10",
            "close_approach_date_full": "2018-Apr-10 05:11",
            "epoch_date_close_approach": 1523337060000,
            "relative_velocity": {
                "kilometers_per_second": "20.3740899029",
                "kilometers_per_hour": "73346.7236504562",
                "miles_per_hour": "45574.8017038071"
            },
            "miss_distance": {
                "astronomical": "0.0894961838",
                "lunar": "34.8140154982",
                "kilometers": "13388438.469608506",
                "miles": "8319189.8990531428"
            },
            "orbiting_body": "Mars"
        }
    ],
    "orbital_data": {
        "orbit_id": "4",
        "orbit_determination_date": "2017-11-22 06:26:52",
        "first_observation_date": "2017-11-13",
        "last_observation_date": "2017-11-22",
        "data_arc_in_days": 9,
        "observations_used": 33,
        "orbit_uncertainty": "8",
        "minimum_orbit_intersection": ".0214137",
        "jupiter_tisserand_invariant": "3.480",
        "epoch_osculation": "2458072.5",
        "eccentricity": ".6472251897845024",
        "semi_major_axis": "2.06194653575208",
        "inclination": "4.913264064783172",
        "ascending_node_longitude": "37.76443228275293",
        "orbital_period": "1081.470126157098",
        "perihelion_distance": ".7274027978244427",
        "perihelion_argument": "92.78305404218452",
        "aphelion_distance": "3.396490273679717",
        "perihelion_time": "2458123.469530037699",
        "mean_anomaly": "343.0332522648839",
        "mean_motion": ".3328802074997912",
        "equinox": "J2000",
        "orbit_class": {
            "orbit_class_type": "APO",
            "orbit_class_description": "Near-Earth asteroid orbits which cross the Earth’s orbit similar to that of 1862 Apollo",
            "orbit_class_range": "a (semi-major axis) > 1.0 AU; q (perihelion) < 1.017 AU"
        }
    },
    "is_sentry_object": false
}